[
  {
    "OBJECT_NAME": "STARLINK-1053",
    "OBJECT_ID": "19074AX",
    "EPOCH": "2025-11-11T07:07:27.778656",
    "MEAN_MOTION": 15.61885118,
    "ECCENTRICITY": 0.0004327,
    "INCLINATION": 53.0404,
    "RA_OF_ASC_NODE": 312.1945,
    "ARG_OF_PERICENTER": 61.4041,
    "MEAN_ANOMALY": 298.7407,
    "EPHEMERIS_TYPE": 0,
    "CLASSIFICATION_TYPE": "U",
    "NORAD_CAT_ID": 44758,
    "ELEMENT_SET_NO": 999,
    "REV_AT_EPOCH": 33156,
    "BSTAR": 0.00085981,
    "MEAN_MOTION_DOT": 0.00076324,
    "MEAN_MOTION_DDOT": 0.0,
    "TLE_LINE1": "1 44758U 19074AX  25315.29684929  .00076324  00000+0  85981-3 0  9999",
    "TLE_LINE2": "2 44758  53.0404 312.1945 0004327  61.4041 298.7407 15.61885118331562",
    "COMMENT": "Grouped by shell and plane from TLE"
  },
  {
    "OBJECT_NAME": "STARLINK-11087 [DTC]",
    "OBJECT_ID": "24065A",
    "EPOCH": "2025-11-11T06:43:13.243296",
    "MEAN_MOTION": 15.69708853,
    "ECCENTRICITY": 0.0001382,
    "INCLINATION": 53.158,
    "RA_OF_ASC_NODE": 317.7376,
    "ARG_OF_PERICENTER": 80.8401,
    "MEAN_ANOMALY": 279.2773,
    "EPHEMERIS_TYPE": 0,
    "CLASSIFICATION_TYPE": "U",
    "NORAD_CAT_ID": 59421,
    "ELEMENT_SET_NO": 999,
    "REV_AT_EPOCH": 9291,
    "BSTAR": 4.4523e-05,
    "MEAN_MOTION_DOT": 4.808e-05,
    "MEAN_MOTION_DDOT": 0.0,
    "TLE_LINE1": "1 59421U 24065A   25315.28001439  .00004808  00000+0  44523-4 0  9992",
    "TLE_LINE2": "2 59421  53.1580 317.7376 0001382  80.8401 279.2773 15.69708853 92914",
    "COMMENT": "Grouped by shell and plane from TLE"
  },
  {
    "OBJECT_NAME": "STARLINK-11090 [DTC]",
    "OBJECT_ID": "24065B",
    "EPOCH": "2025-11-11T06:22:01.502688",
    "MEAN_MOTION": 15.69698806,
    "ECCENTRICITY": 0.0001512,
    "INCLINATION": 53.1591,
    "RA_OF_ASC_NODE": 317.6441,
    "ARG_OF_PERICENTER": 69.8188,
    "MEAN_ANOMALY": 290.2993,
    "EPHEMERIS_TYPE": 0,
    "CLASSIFICATION_TYPE": "U",
    "NORAD_CAT_ID": 59422,
    "ELEMENT_SET_NO": 999,
    "REV_AT_EPOCH": 9293,
    "BSTAR": 3.9122e-05,
    "MEAN_MOTION_DOT": 4.151e-05,
    "MEAN_MOTION_DDOT": 0.0,
    "TLE_LINE1": "1 59422U 24065B   25315.26529517  .00004151  00000+0  39122-4 0  9993",
    "TLE_LINE2": "2 59422  53.1591 317.6441 0001512  69.8188 290.2993 15.69698806 92938",
    "COMMENT": "Grouped by shell and plane from TLE"
  },
  {
    "OBJECT_NAME": "STARLINK-11093 [DTC]",
    "OBJECT_ID": "24065C",
    "EPOCH": "2025-11-11T06:29:04.990560",
    "MEAN_MOTION": 15.69725581,
    "ECCENTRICITY": 0.000165,
    "INCLINATION": 53.1584,
    "RA_OF_ASC_NODE": 317.6735,
    "ARG_OF_PERICENTER": 106.8952,
    "MEAN_ANOMALY": 253.2247,
    "EPHEMERIS_TYPE": 0,
    "CLASSIFICATION_TYPE": "U",
    "NORAD_CAT_ID": 59423,
    "ELEMENT_SET_NO": 999,
    "REV_AT_EPOCH": 9292,
    "BSTAR": 6.6826e-05,
    "MEAN_MOTION_DOT": 7.519e-05,
    "MEAN_MOTION_DDOT": 0.0,
    "TLE_LINE1": "1 59423U 24065C   25315.27019665  .00007519  00000+0  66826-4 0  9995",
    "TLE_LINE2": "2 59423  53.1584 317.6735 0001650 106.8952 253.2247 15.69725581 92922",
    "COMMENT": "Grouped by shell and plane from TLE"
  },
  {
    "OBJECT_NAME": "STARLINK-11083 [DTC]",
    "OBJECT_ID": "24065D",
    "EPOCH": "2025-11-11T06:36:09.188640",
    "MEAN_MOTION": 15.6971772,
    "ECCENTRICITY": 0.0001756,
    "INCLINATION": 53.1578,
    "RA_OF_ASC_NODE": 317.705,
    "ARG_OF_PERICENTER": 103.3447,
    "MEAN_ANOMALY": 256.7767,
    "EPHEMERIS_TYPE": 0,
    "CLASSIFICATION_TYPE": "U",
    "NORAD_CAT_ID": 59424,
    "ELEMENT_SET_NO": 999,
    "REV_AT_EPOCH": 9287,
    "BSTAR": 4.1772e-05,
    "MEAN_MOTION_DOT": 4.475e-05,
    "MEAN_MOTION_DDOT": 0.0,
    "TLE_LINE1": "1 59424U 24065D   25315.27510635  .00004475  00000+0  41772-4 0  9990",
    "TLE_LINE2": "2 59424  53.1578 317.7050 0001756 103.3447 256.7767 15.69717720 92870",
    "COMMENT": "Grouped by shell and plane from TLE"
  },
  {
    "OBJECT_NAME": "STARLINK-11085 [DTC]",
    "OBJECT_ID": "24065E",
    "EPOCH": "2025-11-11T06:14:57.708960",
    "MEAN_MOTION": 15.69712933,
    "ECCENTRICITY": 0.0001647,
    "INCLINATION": 53.1601,
    "RA_OF_ASC_NODE": 317.6081,
    "ARG_OF_PERICENTER": 87.4986,
    "MEAN_ANOMALY": 272.622,
    "EPHEMERIS_TYPE": 0,
    "CLASSIFICATION_TYPE": "U",
    "NORAD_CAT_ID": 59425,
    "ELEMENT_SET_NO": 999,
    "REV_AT_EPOCH": 9287,
    "BSTAR": 4.3723000000000005e-06,
    "MEAN_MOTION_DOT": -6e-07,
    "MEAN_MOTION_DDOT": 0.0,
    "TLE_LINE1": "1 59425U 24065E   25315.26039015 -.00000060  00000+0  43723-5 0  9994",
    "TLE_LINE2": "2 59425  53.1601 317.6081 0001647  87.4986 272.6220 15.69712933 92872",
    "COMMENT": "Grouped by shell and plane from TLE"
  },
  {
    "OBJECT_NAME": "STARLINK-11089 [DTC]",
    "OBJECT_ID": "24065F",
    "EPOCH": "2025-11-11T06:50:16.512576",
    "MEAN_MOTION": 15.69711921,
    "ECCENTRICITY": 0.0001312,
    "INCLINATION": 53.1595,
    "RA_OF_ASC_NODE": 317.7867,
    "ARG_OF_PERICENTER": 73.4364,
    "MEAN_ANOMALY": 286.6798,
    "EPHEMERIS_TYPE": 0,
    "CLASSIFICATION_TYPE": "U",
    "NORAD_CAT_ID": 59426,
    "ELEMENT_SET_NO": 999,
    "REV_AT_EPOCH": 9292,
    "BSTAR": 3.2096000000000006e-05,
    "MEAN_MOTION_DOT": 3.301e-05,
    "MEAN_MOTION_DDOT": 0.0,
    "TLE_LINE1": "1 59426U 24065F   25315.28491334  .00003301  00000+0  32096-4 0  9993",
    "TLE_LINE2": "2 59426  53.1595 317.7867 0001312  73.4364 286.6798 15.69711921 92929",
    "COMMENT": "Grouped by shell and plane from TLE"
  },
  {
    "OBJECT_NAME": "STARLINK-11228 [DTC]",
    "OBJECT_ID": "24141A",
    "EPOCH": "2025-11-11T06:29:55.776480",
    "MEAN_MOTION": 15.69714551,
    "ECCENTRICITY": 0.0001273,
    "INCLINATION": 53.159,
    "RA_OF_ASC_NODE": 310.042,
    "ARG_OF_PERICENTER": 71.8302,
    "MEAN_ANOMALY": 288.2855,
    "EPHEMERIS_TYPE": 0,
    "CLASSIFICATION_TYPE": "U",
    "NORAD_CAT_ID": 60398,
    "ELEMENT_SET_NO": 999,
    "REV_AT_EPOCH": 7309,
    "BSTAR": 4.1281e-05,
    "MEAN_MOTION_DOT": 4.416e-05,
    "MEAN_MOTION_DDOT": 0.0,
    "TLE_LINE1": "1 60398U 24141A   25315.27078445  .00004416  00000+0  41281-4 0  9995",
    "TLE_LINE2": "2 60398  53.1590 310.0420 0001273  71.8302 288.2855 15.69714551 73096",
    "COMMENT": "Grouped by shell and plane from TLE"
  },
  {
    "OBJECT_NAME": "STARLINK-11158 [DTC]",
    "OBJECT_ID": "24141F",
    "EPOCH": "2025-11-11T05:40:38.493696",
    "MEAN_MOTION": 15.69715192,
    "ECCENTRICITY": 0.0001397,
    "INCLINATION": 53.1584,
    "RA_OF_ASC_NODE": 310.5476,
    "ARG_OF_PERICENTER": 98.2945,
    "MEAN_ANOMALY": 261.8232,
    "EPHEMERIS_TYPE": 0,
    "CLASSIFICATION_TYPE": "U",
    "NORAD_CAT_ID": 60403,
    "ELEMENT_SET_NO": 999,
    "REV_AT_EPOCH": 7308,
    "BSTAR": 5.712500000000001e-06,
    "MEAN_MOTION_DOT": 1.03e-06,
    "MEAN_MOTION_DDOT": 0.0,
    "TLE_LINE1": "1 60403U 24141F   25315.23655664  .00000103  00000+0  57125-5 0  9996",
    "TLE_LINE2": "2 60403  53.1584 310.5476 0001397  98.2945 261.8232 15.69715192 73082",
    "COMMENT": "Grouped by shell and plane from TLE"
  },
  {
    "OBJECT_NAME": "STARLINK-11199 [DTC]",
    "OBJECT_ID": "24141G",
    "EPOCH": "2025-11-11T07:05:15.260928",
    "MEAN_MOTION": 15.69710613,
    "ECCENTRICITY": 0.0001384,
    "INCLINATION": 53.1578,
    "RA_OF_ASC_NODE": 310.2019,
    "ARG_OF_PERICENTER": 80.2764,
    "MEAN_ANOMALY": 279.841,
    "EPHEMERIS_TYPE": 0,
    "CLASSIFICATION_TYPE": "U",
    "NORAD_CAT_ID": 60404,
    "ELEMENT_SET_NO": 999,
    "REV_AT_EPOCH": 7314,
    "BSTAR": 3.0446000000000003e-05,
    "MEAN_MOTION_DOT": 3.101e-05,
    "MEAN_MOTION_DDOT": 0.0,
    "TLE_LINE1": "1 60404U 24141G   25315.29531552  .00003101  00000+0  30446-4 0  9999",
    "TLE_LINE2": "2 60404  53.1578 310.2019 0001384  80.2764 279.8410 15.69710613 73149",
    "COMMENT": "Grouped by shell and plane from TLE"
  },
  {
    "OBJECT_NAME": "STARLINK-11081 [DTC]",
    "OBJECT_ID": "24141H",
    "EPOCH": "2025-11-11T06:58:13.915776",
    "MEAN_MOTION": 15.69678551,
    "ECCENTRICITY": 0.000159,
    "INCLINATION": 53.159,
    "RA_OF_ASC_NODE": 310.169,
    "ARG_OF_PERICENTER": 69.7309,
    "MEAN_ANOMALY": 290.3879,
    "EPHEMERIS_TYPE": 0,
    "CLASSIFICATION_TYPE": "U",
    "NORAD_CAT_ID": 60405,
    "ELEMENT_SET_NO": 999,
    "REV_AT_EPOCH": 7309,
    "BSTAR": 0.0,
    "MEAN_MOTION_DOT": -1.601e-05,
    "MEAN_MOTION_DDOT": 0.0,
    "TLE_LINE1": "1 60405U 24141H   25315.29043884 -.00001601  00000+0 -83648-5 0  9994",
    "TLE_LINE2": "2 60405  53.1590 310.1690 0001590  69.7309 290.3879 15.69678551 73099",
    "COMMENT": "Grouped by shell and plane from TLE"
  },
  {
    "OBJECT_NAME": "STARLINK-11150 [DTC]",
    "OBJECT_ID": "24141J",
    "EPOCH": "2025-11-11T06:51:07.730496",
    "MEAN_MOTION": 15.69706876,
    "ECCENTRICITY": 0.0001227,
    "INCLINATION": 53.1584,
    "RA_OF_ASC_NODE": 310.137,
    "ARG_OF_PERICENTER": 61.8651,
    "MEAN_ANOMALY": 298.2491,
    "EPHEMERIS_TYPE": 0,
    "CLASSIFICATION_TYPE": "U",
    "NORAD_CAT_ID": 60406,
    "ELEMENT_SET_NO": 999,
    "REV_AT_EPOCH": 7314,
    "BSTAR": 4.1029e-05,
    "MEAN_MOTION_DOT": 4.384e-05,
    "MEAN_MOTION_DDOT": 0.0,
    "TLE_LINE1": "1 60406U 24141J   25315.28550614  .00004384  00000+0  41029-4 0  9993",
    "TLE_LINE2": "2 60406  53.1584 310.1370 0001227  61.8651 298.2491 15.69706876 73143",
    "COMMENT": "Grouped by shell and plane from TLE"
  },
  {
    "OBJECT_NAME": "STARLINK-11136 [DTC]",
    "OBJECT_ID": "24141K",
    "EPOCH": "2025-11-11T06:44:03.620544",
    "MEAN_MOTION": 15.69709082,
    "ECCENTRICITY": 0.0001534,
    "INCLINATION": 53.1592,
    "RA_OF_ASC_NODE": 310.1029,
    "ARG_OF_PERICENTER": 117.7873,
    "MEAN_ANOMALY": 242.3301,
    "EPHEMERIS_TYPE": 0,
    "CLASSIFICATION_TYPE": "U",
    "NORAD_CAT_ID": 60407,
    "ELEMENT_SET_NO": 999,
    "REV_AT_EPOCH": 7309,
    "BSTAR": 3.6279e-05,
    "MEAN_MOTION_DOT": 3.808e-05,
    "MEAN_MOTION_DDOT": 0.0,
    "TLE_LINE1": "1 60407U 24141K   25315.28059746  .00003808  00000+0  36279-4 0  9995",
    "TLE_LINE2": "2 60407  53.1592 310.1029 0001534 117.7873 242.3301 15.69709082 73098",
    "COMMENT": "Grouped by shell and plane from TLE"
  }
]